[Satellite]
VERSION=1.1
NAME=COSMOS 2058
NICKNAME=COSMOS 2058
TLE1=1 20465U 90010A   17186.19290958  .00000222  00000-0  16676-4 0  9999
TLE2=2 20465  82.4889 230.5442 0014375 230.1289 129.8670 14.97521887488031
